CCSDS_OMM_VERS = 2.0
CREATION_DATE  = 
ORIGINATOR     = 

OBJECT_NAME    = SHENZHOU-22
OBJECT_ID      = 2025-272A
CENTER_NAME    = EARTH
REF_FRAME      = TEME
TIME_SYSTEM    = UTC
MEAN_ELEMENT_THEORY = SGP/SGP4

EPOCH          = 2025-12-06T05:51:59.537376
MEAN_MOTION    = 15.58781586
ECCENTRICITY   = .00096041
INCLINATION    = 41.4683
RA_OF_ASC_NODE = 56.1283
ARG_OF_PERICENTER = 339.9163
MEAN_ANOMALY   = 20.1296

EPHEMERIS_TYPE = 0
CLASSIFICATION_TYPE = U
NORAD_CAT_ID   = 66645
ELEMENT_SET_NO = 999
REV_AT_EPOCH   = 26295
BSTAR          = .42196391E-3
MEAN_MOTION_DOT = .33378E-3
MEAN_MOTION_DDOT = 0

CCSDS_OMM_VERS = 2.0
CREATION_DATE  = 
ORIGINATOR     = 

OBJECT_NAME    = CZ-2F R/B
OBJECT_ID      = 2025-272B
CENTER_NAME    = EARTH
REF_FRAME      = TEME
TIME_SYSTEM    = UTC
MEAN_ELEMENT_THEORY = SGP/SGP4

EPOCH          = 2025-12-06T13:35:24.857088
MEAN_MOTION    = 16.31678706
ECCENTRICITY   = .0043357
INCLINATION    = 41.4545
RA_OF_ASC_NODE = 48.6295
ARG_OF_PERICENTER = 218.7676
MEAN_ANOMALY   = 141.0074

EPHEMERIS_TYPE = 0
CLASSIFICATION_TYPE = U
NORAD_CAT_ID   = 66646
ELEMENT_SET_NO = 999
REV_AT_EPOCH   = 184
BSTAR          = .51304E-3
MEAN_MOTION_DOT = .4092522E-1
MEAN_MOTION_DDOT = .78194E-5

CCSDS_OMM_VERS = 2.0
CREATION_DATE  = 
ORIGINATOR     = 

OBJECT_NAME    = SOYUZ-MS 28
OBJECT_ID      = 2025-275A
CENTER_NAME    = EARTH
REF_FRAME      = TEME
TIME_SYSTEM    = UTC
MEAN_ELEMENT_THEORY = SGP/SGP4

EPOCH          = 2025-12-06T00:38:46.837536
MEAN_MOTION    = 15.49350538
ECCENTRICITY   = .00036145
INCLINATION    = 51.6296
RA_OF_ASC_NODE = 175.7148
ARG_OF_PERICENTER = 210.2448
MEAN_ANOMALY   = 149.8333

EPHEMERIS_TYPE = 0
CLASSIFICATION_TYPE = U
NORAD_CAT_ID   = 66664
ELEMENT_SET_NO = 999
REV_AT_EPOCH   = 128
BSTAR          = .25885847E-3
MEAN_MOTION_DOT = .14013E-3
MEAN_MOTION_DDOT = 0

CCSDS_OMM_VERS = 2.0
CREATION_DATE  = 
ORIGINATOR     = 

OBJECT_NAME    = 1998-067XS
OBJECT_ID      = 1998-067XS
CENTER_NAME    = EARTH
REF_FRAME      = TEME
TIME_SYSTEM    = UTC
MEAN_ELEMENT_THEORY = SGP/SGP4

EPOCH          = 2025-12-06T00:36:35.431776
MEAN_MOTION    = 15.50078443
ECCENTRICITY   = .00042467
INCLINATION    = 51.6295
RA_OF_ASC_NODE = 175.7046
ARG_OF_PERICENTER = 174.3007
MEAN_ANOMALY   = 185.8030

EPHEMERIS_TYPE = 0
CLASSIFICATION_TYPE = U
NORAD_CAT_ID   = 66906
ELEMENT_SET_NO = 999
REV_AT_EPOCH   = 57
BSTAR          = .63992594E-3
MEAN_MOTION_DOT = .36342E-3
MEAN_MOTION_DDOT = 0

CCSDS_OMM_VERS = 2.0
CREATION_DATE  = 
ORIGINATOR     = 

OBJECT_NAME    = 1998-067XT
OBJECT_ID      = 1998-067XT
CENTER_NAME    = EARTH
REF_FRAME      = TEME
TIME_SYSTEM    = UTC
MEAN_ELEMENT_THEORY = SGP/SGP4

EPOCH          = 2025-12-05T23:03:20.722464
MEAN_MOTION    = 15.50347782
ECCENTRICITY   = .00053008
INCLINATION    = 51.6292
RA_OF_ASC_NODE = 176.0227
ARG_OF_PERICENTER = 190.4344
MEAN_ANOMALY   = 169.6536

EPHEMERIS_TYPE = 0
CLASSIFICATION_TYPE = U
NORAD_CAT_ID   = 66907
ELEMENT_SET_NO = 999
REV_AT_EPOCH   = 56
BSTAR          = .12672984E-2
MEAN_MOTION_DOT = .73478E-3
MEAN_MOTION_DDOT = 0

CCSDS_OMM_VERS = 2.0
CREATION_DATE  = 
ORIGINATOR     = 

OBJECT_NAME    = 1998-067XU
OBJECT_ID      = 1998-067XU
CENTER_NAME    = EARTH
REF_FRAME      = TEME
TIME_SYSTEM    = UTC
MEAN_ELEMENT_THEORY = SGP/SGP4

EPOCH          = 2025-12-06T00:36:01.329696
MEAN_MOTION    = 15.50421337
ECCENTRICITY   = .00055167
INCLINATION    = 51.6293
RA_OF_ASC_NODE = 175.7016
ARG_OF_PERICENTER = 189.9081
MEAN_ANOMALY   = 170.1801

EPHEMERIS_TYPE = 0
CLASSIFICATION_TYPE = U
NORAD_CAT_ID   = 66908
ELEMENT_SET_NO = 999
REV_AT_EPOCH   = 57
BSTAR          = .11822009E-2
MEAN_MOTION_DOT = .68654E-3
MEAN_MOTION_DDOT = 0

CCSDS_OMM_VERS = 2.0
CREATION_DATE  = 
ORIGINATOR     = 

OBJECT_NAME    = 1998-067XV
OBJECT_ID      = 1998-067XV
CENTER_NAME    = EARTH
REF_FRAME      = TEME
TIME_SYSTEM    = UTC
MEAN_ELEMENT_THEORY = SGP/SGP4

EPOCH          = 2025-12-05T18:24:43.911360
MEAN_MOTION    = 15.50399103
ECCENTRICITY   = .00053649
INCLINATION    = 51.6292
RA_OF_ASC_NODE = 176.9805
ARG_OF_PERICENTER = 189.9534
MEAN_ANOMALY   = 170.1350

EPHEMERIS_TYPE = 0
CLASSIFICATION_TYPE = U
NORAD_CAT_ID   = 66909
ELEMENT_SET_NO = 999
REV_AT_EPOCH   = 53
BSTAR          = .14470913E-2
MEAN_MOTION_DOT = .84238E-3
MEAN_MOTION_DDOT = 0

CCSDS_OMM_VERS = 2.0
CREATION_DATE  = 
ORIGINATOR     = 

OBJECT_NAME    = 1998-067XW
OBJECT_ID      = 1998-067XW
CENTER_NAME    = EARTH
REF_FRAME      = TEME
TIME_SYSTEM    = UTC
MEAN_ELEMENT_THEORY = SGP/SGP4

EPOCH          = 2025-12-06T00:35:02.981184
MEAN_MOTION    = 15.50697107
ECCENTRICITY   = .00063134
INCLINATION    = 51.6293
RA_OF_ASC_NODE = 175.6976
ARG_OF_PERICENTER = 176.9910
MEAN_ANOMALY   = 183.1118

EPHEMERIS_TYPE = 0
CLASSIFICATION_TYPE = U
NORAD_CAT_ID   = 66910
ELEMENT_SET_NO = 999
REV_AT_EPOCH   = 57
BSTAR          = .12769475E-2
MEAN_MOTION_DOT = .75E-3
MEAN_MOTION_DDOT = 0

CCSDS_OMM_VERS = 2.0
CREATION_DATE  = 
ORIGINATOR     = 

OBJECT_NAME    = 1998-067XX
OBJECT_ID      = 1998-067XX
CENTER_NAME    = EARTH
REF_FRAME      = TEME
TIME_SYSTEM    = UTC
MEAN_ELEMENT_THEORY = SGP/SGP4

EPOCH          = 2025-12-06T00:34:57.951840
MEAN_MOTION    = 15.50761209
ECCENTRICITY   = .00062252
INCLINATION    = 51.6293
RA_OF_ASC_NODE = 175.6973
ARG_OF_PERICENTER = 177.1118
MEAN_ANOMALY   = 182.9908

EPHEMERIS_TYPE = 0
CLASSIFICATION_TYPE = U
NORAD_CAT_ID   = 66911
ELEMENT_SET_NO = 999
REV_AT_EPOCH   = 56
BSTAR          = .14212486E-2
MEAN_MOTION_DOT = .83811E-3
MEAN_MOTION_DDOT = 0

CCSDS_OMM_VERS = 2.0
CREATION_DATE  = 
ORIGINATOR     = 

OBJECT_NAME    = 1998-067XY
OBJECT_ID      = 1998-067XY
CENTER_NAME    = EARTH
REF_FRAME      = TEME
TIME_SYSTEM    = UTC
MEAN_ELEMENT_THEORY = SGP/SGP4

EPOCH          = 2025-12-06T00:36:19.370880
MEAN_MOTION    = 15.50259838
ECCENTRICITY   = .000539
INCLINATION    = 51.6295
RA_OF_ASC_NODE = 175.7030
ARG_OF_PERICENTER = 190.1033
MEAN_ANOMALY   = 169.9848

EPHEMERIS_TYPE = 0
CLASSIFICATION_TYPE = U
NORAD_CAT_ID   = 66912
ELEMENT_SET_NO = 999
REV_AT_EPOCH   = 56
BSTAR          = .1060792E-2
MEAN_MOTION_DOT = .61143E-3
MEAN_MOTION_DDOT = 0

