SHENZHOU-22             
1 66645U 25272A   25340.24443909  .00033378  00000+0  42196-3 0  9992
2 66645  41.4683  56.1283 0009604 339.9163  20.1296 15.58781586262951
CZ-2F R/B               
1 66646U 25272B   25340.56625992  .04092522  78194-5  51304-3 0  9998
2 66646  41.4545  48.6295 0043357 218.7676 141.0074 16.31678706  1841
SOYUZ-MS 28             
1 66664U 25275A   25340.02693099  .00014013  00000+0  25886-3 0  9991
2 66664  51.6296 175.7148 0003614 210.2448 149.8333 15.49350538  1282
1998-067XS              
1 66906U 98067XS  25340.02541009  .00036342  00000+0  63993-3 0  9992
2 66906  51.6295 175.7046 0004246 174.3007 185.8030 15.50078443   579
1998-067XT              
1 66907U 98067XT  25339.96065651  .00073478  00000+0  12673-2 0  9997
2 66907  51.6292 176.0227 0005300 190.4344 169.6536 15.50347782   562
1998-067XU              
1 66908U 98067XU  25340.02501539  .00068654  00000+0  11822-2 0  9992
2 66908  51.6293 175.7016 0005516 189.9081 170.1801 15.50421337   578
1998-067XV              
1 66909U 98067XV  25339.76717490  .00084238  00000+0  14471-2 0  9996
2 66909  51.6292 176.9805 0005364 189.9534 170.1350 15.50399103   531
1998-067XW              
1 66910U 98067XW  25340.02434006  .00075000  00000+0  12769-2 0  9993
2 66910  51.6293 175.6976 0006313 176.9910 183.1118 15.50697107   573
1998-067XX              
1 66911U 98067XX  25340.02428185  .00083811  00000+0  14212-2 0  9999
2 66911  51.6293 175.6973 0006225 177.1118 182.9908 15.50761209   564
1998-067XY              
1 66912U 98067XY  25340.02522420  .00061143  00000+0  10608-2 0  9996
2 66912  51.6295 175.7030 0005390 190.1033 169.9848 15.50259838   563
